[{"icaoId":"KJFK","receiptTime":"2026-06-10T05:54:09.055Z","obsTime":1781070660,"reportTime":"2026-06-10T06:00:00.000Z","temp":17.8,"dewp":14.4,"wdir":220,"wspd":6,"visib":"10+","altim":1016.7,"slp":1016.6,"qcField":12,"presTend":-1.1,"maxT":20,"minT":17.8,"metarType":"METAR","rawOb":"METAR KJFK 100551Z 22006KT 10SM SCT250 18/14 A3002 RMK AO2 SLP166 T01780144 10200 20178 56011 $","lat":40.6392,"lon":-73.7639,"elev":3,"name":"New York/JF Kennedy Intl, NY, US","cover":"SCT","clouds":[{"cover":"SCT","base":25000}],"fltCat":"VFR"}]