[{"icaoId":"UUEE","receiptTime":"2026-06-10T06:06:10.989Z","obsTime":1781071200,"reportTime":"2026-06-10T06:00:00.000Z","temp":25,"dewp":13,"wdir":280,"wspd":6,"visib":"6+","altim":1013,"qcField":16,"metarType":"METAR","rawOb":"METAR UUEE 100600Z 28003MPS 240V330 CAVOK 25/13 Q1013 R24L/CLRD62 R24C/CLRD62 NOSIG","lat":55.973,"lon":37.415,"elev":186,"name":"Moscow/Sheremetyevo Intl, MO, RU","cover":"CAVOK","clouds":[],"fltCat":"VFR"}]