[{"icaoId":"LFLC","receiptTime":"2026-06-10T06:06:08.809Z","obsTime":1781071200,"reportTime":"2026-06-10T06:00:00.000Z","temp":14,"dewp":8,"wdir":60,"wspd":3,"visib":"6+","altim":1020,"qcField":2,"metarType":"METAR","rawOb":"METAR LFLC 100600Z AUTO 06003KT 020V130 9999 FEW046 BKN058 OVC074 14/08 Q1020 TEMPO FEW045TCU BKN050 BECMG 31010KT","lat":45.787,"lon":3.169,"elev":325,"name":"Clermont-Ferrand/Auvergne Arpt, AR, FR","cover":"OVC","clouds":[{"cover":"FEW","base":4600},{"cover":"BKN","base":5800},{"cover":"OVC","base":7400}],"fltCat":"VFR"}]